{
  "type": "FeatureCollection",
  "features": [
    {
      "type": "Feature",
      "properties": {
        "norad_id": 66404,
        "name": "STARLINK-35691",
        "group": "last-30-days",
        "lat": 50.931386100624934,
        "lon": -2.109207568542607,
        "alt_km": 410.9431989300547,
        "timestamp": "2025-12-07T03:52:31.202422+00:00",
        "meta_object_name": "STARLINK-35691",
        "meta_object_id": "2025-257AA",
        "meta_epoch": "2025-12-06T07:25:27.788160",
        "meta_mean_motion": 15.49375939,
        "meta_eccentricity": 4.55e-05,
        "meta_inclination": 53.1594,
        "meta_ra_of_asc_node": 294.5115,
        "meta_arg_of_pericenter": 127.6305,
        "meta_mean_anomaly": 232.4745,
        "meta_ephemeris_type": 0,
        "meta_classification_type": "U",
        "meta_norad_cat_id": 66404,
        "meta_element_set_no": 999,
        "meta_rev_at_epoch": 538,
        "meta_bstar": 0.0020746218,
        "meta_mean_motion_dot": 0.00116952,
        "meta_mean_motion_ddot": 0,
        "tle_line1": "1 66404U 25257AA  25340.30934940  .00116952  00000+0  20746-2 0  9991",
        "tle_line2": "2 66404  53.1594 294.5115 0000455 127.6305 232.4745 15.49375939  5382"
      },
      "geometry": {
        "type": "Point",
        "coordinates": [
          -2.109207568542607,
          50.931386100624934
        ]
      }
    },
    {
      "type": "Feature",
      "properties": {
        "norad_id": 66405,
        "name": "STARLINK-35683",
        "group": "last-30-days",
        "lat": 51.39519313961555,
        "lon": 0.32099966662364876,
        "alt_km": 410.8177623997981,
        "timestamp": "2025-12-07T03:52:31.202433+00:00",
        "meta_object_name": "STARLINK-35683",
        "meta_object_id": "2025-257AB",
        "meta_epoch": "2025-12-06T04:19:12.292032",
        "meta_mean_motion": 15.49283742,
        "meta_eccentricity": 8.737e-05,
        "meta_inclination": 53.1588,
        "meta_ra_of_asc_node": 295.1251,
        "meta_arg_of_pericenter": 49.0539,
        "meta_mean_anomaly": 311.0545,
        "meta_ephemeris_type": 0,
        "meta_classification_type": "U",
        "meta_norad_cat_id": 66405,
        "meta_element_set_no": 999,
        "meta_rev_at_epoch": 529,
        "meta_bstar": 0.0017587566,
        "meta_mean_motion_dot": 0.00098521,
        "meta_mean_motion_ddot": 0,
        "tle_line1": "1 66405U 25257AB  25340.18000338  .00098521  00000+0  17588-2 0  9994",
        "tle_line2": "2 66405  53.1588 295.1251 0000873  49.0539 311.0545 15.49283742  5296"
      },
      "geometry": {
        "type": "Point",
        "coordinates": [
          0.32099966662364876,
          51.39519313961555
        ]
      }
    },
    {
      "type": "Feature",
      "properties": {
        "norad_id": 66406,
        "name": "STARLINK-34840",
        "group": "last-30-days",
        "lat": 52.65958349875309,
        "lon": 9.762252206545343,
        "alt_km": 410.2119501094048,
        "timestamp": "2025-12-07T03:52:31.202444+00:00",
        "meta_object_name": "STARLINK-34840",
        "meta_object_id": "2025-257AC",
        "meta_epoch": "2025-12-06T08:56:22.817184",
        "meta_mean_motion": 15.49360559,
        "meta_eccentricity": 0.00012408,
        "meta_inclination": 53.1588,
        "meta_ra_of_asc_node": 294.1932,
        "meta_arg_of_pericenter": 83.4805,
        "meta_mean_anomaly": 276.6345,
        "meta_ephemeris_type": 0,
        "meta_classification_type": "U",
        "meta_norad_cat_id": 66406,
        "meta_element_set_no": 999,
        "meta_rev_at_epoch": 533,
        "meta_bstar": 0.001811742,
        "meta_mean_motion_dot": 0.00101821,
        "meta_mean_motion_ddot": 0,
        "tle_line1": "1 66406U 25257AC  25340.37248631  .00101821  00000+0  18117-2 0  9993",
        "tle_line2": "2 66406  53.1588 294.1932 0001240  83.4805 276.6345 15.49360559  5330"
      },
      "geometry": {
        "type": "Point",
        "coordinates": [
          9.762252206545343,
          52.65958349875309
        ]
      }
    },
    {
      "type": "Feature",
      "properties": {
        "norad_id": 66407,
        "name": "STARLINK-35686",
        "group": "last-30-days",
        "lat": 51.95713246525694,
        "lon": 3.7926118412656016,
        "alt_km": 409.87971713960906,
        "timestamp": "2025-12-07T03:52:31.202455+00:00",
        "meta_object_name": "STARLINK-35686",
        "meta_object_id": "2025-257AD",
        "meta_epoch": "2025-12-06T04:18:41.752224",
        "meta_mean_motion": 15.49345649,
        "meta_eccentricity": 0.0001858,
        "meta_inclination": 53.1589,
        "meta_ra_of_asc_node": 295.1224,
        "meta_arg_of_pericenter": 99.0415,
        "meta_mean_anomaly": 261.0804,
        "meta_ephemeris_type": 0,
        "meta_classification_type": "U",
        "meta_norad_cat_id": 66407,
        "meta_element_set_no": 999,
        "meta_rev_at_epoch": 536,
        "meta_bstar": 0.0019143547,
        "meta_mean_motion_dot": 0.00107639,
        "meta_mean_motion_ddot": 0,
        "tle_line1": "1 66407U 25257AD  25340.17964991  .00107639  00000+0  19144-2 0  9990",
        "tle_line2": "2 66407  53.1589 295.1224 0001858  99.0415 261.0804 15.49345649  5366"
      },
      "geometry": {
        "type": "Point",
        "coordinates": [
          3.7926118412656016,
          51.95713246525694
        ]
      }
    },
    {
      "type": "Feature",
      "properties": {
        "norad_id": 66408,
        "name": "STARLINK-35679",
        "group": "last-30-days",
        "lat": 52.363808531980155,
        "lon": 6.903195855729115,
        "alt_km": 409.9733498899859,
        "timestamp": "2025-12-07T03:52:31.202466+00:00",
        "meta_object_name": "STARLINK-35679",
        "meta_object_id": "2025-257AE",
        "meta_epoch": "2025-12-06T04:18:12.054816",
        "meta_mean_motion": 15.49356651,
        "meta_eccentricity": 0.00016029,
        "meta_inclination": 53.1593,
        "meta_ra_of_asc_node": 295.1224,
        "meta_arg_of_pericenter": 102.3098,
        "meta_mean_anomaly": 257.8091,
        "meta_ephemeris_type": 0,
        "meta_classification_type": "U",
        "meta_norad_cat_id": 66408,
        "meta_element_set_no": 999,
        "meta_rev_at_epoch": 536,
        "meta_bstar": 0.0018816254,
        "meta_mean_motion_dot": 0.00105806,
        "meta_mean_motion_ddot": 0,
        "tle_line1": "1 66408U 25257AE  25340.17930619  .00105806  00000+0  18816-2 0  9990",
        "tle_line2": "2 66408  53.1593 295.1224 0001602 102.3098 257.8091 15.49356651  5360"
      },
      "geometry": {
        "type": "Point",
        "coordinates": [
          6.903195855729115,
          52.363808531980155
        ]
      }
    },
    {
      "type": "Feature",
      "properties": {
        "norad_id": 66409,
        "name": "CHUTIAN-2 A",
        "group": "last-30-days",
        "lat": 46.228394761241084,
        "lon": -125.23791000087728,
        "alt_km": 717.3010683318034,
        "timestamp": "2025-12-07T03:52:31.202477+00:00",
        "meta_object_name": "CHUTIAN-2 A",
        "meta_object_id": "2025-256A",
        "meta_epoch": "2025-12-06T14:00:47.187072",
        "meta_mean_motion": 14.49929258,
        "meta_eccentricity": 0.0013376,
        "meta_inclination": 98.2779,
        "meta_ra_of_asc_node": 45.4539,
        "meta_arg_of_pericenter": 196.4545,
        "meta_mean_anomaly": 163.6217,
        "meta_ephemeris_type": 0,
        "meta_classification_type": "U",
        "meta_norad_cat_id": 66409,
        "meta_element_set_no": 999,
        "meta_rev_at_epoch": 398,
        "meta_bstar": 0.00036107111,
        "meta_mean_motion_dot": 1.354e-05,
        "meta_mean_motion_ddot": 0,
        "tle_line1": "1 66409U 25256A   25340.58387948  .00001354  00000+0  36107-3 0  9993",
        "tle_line2": "2 66409  98.2779  45.4539 0013376 196.4545 163.6217 14.49929258  3982"
      },
      "geometry": {
        "type": "Point",
        "coordinates": [
          -125.23791000087728,
          46.228394761241084
        ]
      }
    },
    {
      "type": "Feature",
      "properties": {
        "norad_id": 66410,
        "name": "CHUTIAN-2 B",
        "group": "last-30-days",
        "lat": -28.291884119000045,
        "lon": -138.43357353854375,
        "alt_km": 718.7493546147389,
        "timestamp": "2025-12-07T03:52:31.202488+00:00",
        "meta_object_name": "CHUTIAN-2 B",
        "meta_object_id": "2025-256B",
        "meta_epoch": "2025-12-06T13:40:38.362944",
        "meta_mean_motion": 14.51013913,
        "meta_eccentricity": 0.00134521,
        "meta_inclination": 98.2803,
        "meta_ra_of_asc_node": 45.48,
        "meta_arg_of_pericenter": 200.2195,
        "meta_mean_anomaly": 159.8468,
        "meta_ephemeris_type": 0,
        "meta_classification_type": "U",
        "meta_norad_cat_id": 66410,
        "meta_element_set_no": 999,
        "meta_rev_at_epoch": 398,
        "meta_bstar": 0.00034454829,
        "meta_mean_motion_dot": 1.32e-05,
        "meta_mean_motion_ddot": 0,
        "tle_line1": "1 66410U 25256B   25340.56988846  .00001320  00000+0  34455-3 0  9994",
        "tle_line2": "2 66410  98.2803  45.4800 0013452 200.2195 159.8468 14.51013913  3983"
      },
      "geometry": {
        "type": "Point",
        "coordinates": [
          -138.43357353854375,
          -28.291884119000045
        ]
      }
    }
  ]
}